WNISAT-1                
1 39423U 13066H   26061.97328759  .00002033  00000+0  37877-3 0  9994
2 39423  97.7030 218.7725 0163122 206.0644 153.2278 14.57840285651259
TRITON-1                
1 39427U 13066M   26062.18578189  .00003917  00000+0  47688-3 0  9999
2 39427  97.8306 334.4254 0089668 219.0804 140.3910 14.81154932658393
GOMX-1                  
1 39430U 13066Q   26062.15002721  .00001868  00000+0  28681-3 0  9999
2 39430  97.6572 269.2627 0130631  58.3274 303.0595 14.69065861654347
CUBEBUG-2 (LO-74)       
1 39440U 13066AA  26061.86115484  .00007706  00000+0  72433-3 0  9999
2 39440  97.8806  10.5236 0059454  21.5397 338.8304 14.92848010661123
NEE-02 KRYSAOR          
1 39441U 13066AB  26061.77975622  .00004041  00000+0  44844-3 0  9992
2 39441  97.8811   1.8428 0068260  59.2659 301.5256 14.86105057660391
FUNCUBE-1 (AO-73)       
1 39444U 13066AE  26062.13757133  .00010295  00000+0  66728-3 0  9994
2 39444  97.8166  31.5650 0036601 201.9593 158.0068 15.07754747663671
UWE-3                   
1 39446U 13066AG  26061.84106501  .00006370  00000+0  55859-3 0  9992
2 39446  97.8591  17.3470 0048825 316.1252  43.6095 14.96081924661673
BRITE-CA1 (TORONTO)     
1 40020U 14033L   26061.90146809  .00001524  00000+0  23749-3 0  9998
2 40020  97.9556 192.9101 0077689 256.9523 102.3004 14.72438680626570
DUCHIFAT-1              
1 40021U 14033M   26062.11216218  .00060633  00000+0  11193-2 0  9990
2 40021  98.0644 107.7691 0006720 103.1192 257.0807 15.48874704639255
NANOSATC-BR1            
1 40024U 14033Q   26062.04099784  .00019981  00000+0  73735-3 0  9993
2 40024  98.0840  85.2524 0003913 166.1172 194.0174 15.27812035637755
QB50P1                  
1 40025U 14033R   26061.97947682  .00011071  00000+0  57391-3 0  9996
2 40025  98.0997  65.8094 0007614 219.7870 140.2804 15.16340222636920
QB50P2                  
1 40032U 14033Y   26062.18464698  .00011208  00000+0  62896-3 0  9997
2 40032  98.0718  52.6122 0007803 162.6279 197.5219 15.13514939636621
PERSEUS-M2              
1 40037U 14033AD  26062.13529368  .00003838  00000+0  35510-3 0  9996
2 40037  97.9855  10.6180 0010365 295.9133  64.1018 14.95121076634933
PERSEUS-M1              
1 40039U 14033AF  26061.78123926  .00003474  00000+0  32126-3 0  9994
2 40039  97.9548   4.2636 0010070 294.5474  65.4696 14.95207636634736
POLYITAN-1              
1 40042U 14033AJ  26062.00070681  .00024160  00000+0  85298-3 0  9996
2 40042  98.1046  78.4877 0008787 146.9517 213.2272 15.29195498637349
TIGRISAT                
1 40043U 14033AK  26061.64832918  .00003135  00000+0  36831-3 0  9993
2 40043  97.7655 214.2268 0050753  65.0259 295.6215 14.84681965629812
AEROCUBE 6A             
1 40045U 14033AM  26061.97832583  .00007500  00000+0  65098-3 0  9996
2 40045  97.7108 230.2132 0039414  12.1397 348.0765 14.96723750630729
