[{"OBJECT_NAME":"WNISAT-1","OBJECT_ID":"2013-066H","EPOCH":"2026-03-02T23:21:32.047776","MEAN_MOTION":14.57840285,"ECCENTRICITY":0.0163122,"INCLINATION":97.703,"RA_OF_ASC_NODE":218.7725,"ARG_OF_PERICENTER":206.0644,"MEAN_ANOMALY":153.2278,"EPHEMERIS_TYPE":0,"CLASSIFICATION_TYPE":"U","NORAD_CAT_ID":39423,"ELEMENT_SET_NO":999,"REV_AT_EPOCH":65125,"BSTAR":0.00037877,"MEAN_MOTION_DOT":2.033e-5,"MEAN_MOTION_DDOT":0},{"OBJECT_NAME":"TRITON-1","OBJECT_ID":"2013-066M","EPOCH":"2026-03-03T04:27:31.555296","MEAN_MOTION":14.81154932,"ECCENTRICITY":0.0089668,"INCLINATION":97.8306,"RA_OF_ASC_NODE":334.4254,"ARG_OF_PERICENTER":219.0804,"MEAN_ANOMALY":140.391,"EPHEMERIS_TYPE":0,"CLASSIFICATION_TYPE":"U","NORAD_CAT_ID":39427,"ELEMENT_SET_NO":999,"REV_AT_EPOCH":65839,"BSTAR":0.00047688,"MEAN_MOTION_DOT":3.917e-5,"MEAN_MOTION_DDOT":0},{"OBJECT_NAME":"GOMX-1","OBJECT_ID":"2013-066Q","EPOCH":"2026-03-03T03:36:02.350944","MEAN_MOTION":14.69065861,"ECCENTRICITY":0.0130631,"INCLINATION":97.6572,"RA_OF_ASC_NODE":269.2627,"ARG_OF_PERICENTER":58.3274,"MEAN_ANOMALY":303.0595,"EPHEMERIS_TYPE":0,"CLASSIFICATION_TYPE":"U","NORAD_CAT_ID":39430,"ELEMENT_SET_NO":999,"REV_AT_EPOCH":65434,"BSTAR":0.00028681,"MEAN_MOTION_DOT":1.868e-5,"MEAN_MOTION_DDOT":0},{"OBJECT_NAME":"CUBEBUG-2 (LO-74)","OBJECT_ID":"2013-066AA","EPOCH":"2026-03-02T20:40:03.778176","MEAN_MOTION":14.9284801,"ECCENTRICITY":0.00594548,"INCLINATION":97.8806,"RA_OF_ASC_NODE":10.5236,"ARG_OF_PERICENTER":21.5397,"MEAN_ANOMALY":338.8304,"EPHEMERIS_TYPE":0,"CLASSIFICATION_TYPE":"U","NORAD_CAT_ID":39440,"ELEMENT_SET_NO":999,"REV_AT_EPOCH":66112,"BSTAR":0.00072433108,"MEAN_MOTION_DOT":7.706e-5,"MEAN_MOTION_DDOT":0},{"OBJECT_NAME":"NEE-02 KRYSAOR","OBJECT_ID":"2013-066AB","EPOCH":"2026-03-02T18:42:50.937408","MEAN_MOTION":14.86105057,"ECCENTRICITY":0.00682606,"INCLINATION":97.8811,"RA_OF_ASC_NODE":1.8428,"ARG_OF_PERICENTER":59.2659,"MEAN_ANOMALY":301.5256,"EPHEMERIS_TYPE":0,"CLASSIFICATION_TYPE":"U","NORAD_CAT_ID":39441,"ELEMENT_SET_NO":999,"REV_AT_EPOCH":66039,"BSTAR":0.0004484418,"MEAN_MOTION_DOT":4.041e-5,"MEAN_MOTION_DDOT":0},{"OBJECT_NAME":"FUNCUBE-1 (AO-73)","OBJECT_ID":"2013-066AE","EPOCH":"2026-03-03T03:18:06.162912","MEAN_MOTION":15.07754747,"ECCENTRICITY":0.0036601,"INCLINATION":97.8166,"RA_OF_ASC_NODE":31.565,"ARG_OF_PERICENTER":201.9593,"MEAN_ANOMALY":158.0068,"EPHEMERIS_TYPE":0,"CLASSIFICATION_TYPE":"U","NORAD_CAT_ID":39444,"ELEMENT_SET_NO":999,"REV_AT_EPOCH":66367,"BSTAR":0.00066728,"MEAN_MOTION_DOT":0.00010295,"MEAN_MOTION_DDOT":0},{"OBJECT_NAME":"UWE-3","OBJECT_ID":"2013-066AG","EPOCH":"2026-03-02T20:11:08.016864","MEAN_MOTION":14.96081924,"ECCENTRICITY":0.0048825,"INCLINATION":97.8591,"RA_OF_ASC_NODE":17.347,"ARG_OF_PERICENTER":316.1252,"MEAN_ANOMALY":43.6095,"EPHEMERIS_TYPE":0,"CLASSIFICATION_TYPE":"U","NORAD_CAT_ID":39446,"ELEMENT_SET_NO":999,"REV_AT_EPOCH":66167,"BSTAR":0.00055859,"MEAN_MOTION_DOT":6.37e-5,"MEAN_MOTION_DDOT":0},{"OBJECT_NAME":"BRITE-CA1 (TORONTO)","OBJECT_ID":"2014-033L","EPOCH":"2026-03-02T21:38:06.842976","MEAN_MOTION":14.7243868,"ECCENTRICITY":0.0077689,"INCLINATION":97.9556,"RA_OF_ASC_NODE":192.9101,"ARG_OF_PERICENTER":256.9523,"MEAN_ANOMALY":102.3004,"EPHEMERIS_TYPE":0,"CLASSIFICATION_TYPE":"U","NORAD_CAT_ID":40020,"ELEMENT_SET_NO":999,"REV_AT_EPOCH":62657,"BSTAR":0.00023749,"MEAN_MOTION_DOT":1.524e-5,"MEAN_MOTION_DDOT":0},{"OBJECT_NAME":"DUCHIFAT-1","OBJECT_ID":"2014-033M","EPOCH":"2026-03-03T02:41:30.812352","MEAN_MOTION":15.48874704,"ECCENTRICITY":0.000672,"INCLINATION":98.0644,"RA_OF_ASC_NODE":107.7691,"ARG_OF_PERICENTER":103.1192,"MEAN_ANOMALY":257.0807,"EPHEMERIS_TYPE":0,"CLASSIFICATION_TYPE":"U","NORAD_CAT_ID":40021,"ELEMENT_SET_NO":999,"REV_AT_EPOCH":63925,"BSTAR":0.0011193,"MEAN_MOTION_DOT":0.00060633,"MEAN_MOTION_DDOT":0},{"OBJECT_NAME":"NANOSATC-BR1","OBJECT_ID":"2014-033Q","EPOCH":"2026-03-03T00:59:02.213376","MEAN_MOTION":15.27812035,"ECCENTRICITY":0.0003913,"INCLINATION":98.084,"RA_OF_ASC_NODE":85.2524,"ARG_OF_PERICENTER":166.1172,"MEAN_ANOMALY":194.0174,"EPHEMERIS_TYPE":0,"CLASSIFICATION_TYPE":"U","NORAD_CAT_ID":40024,"ELEMENT_SET_NO":999,"REV_AT_EPOCH":63775,"BSTAR":0.00073735,"MEAN_MOTION_DOT":0.00019981,"MEAN_MOTION_DDOT":0},{"OBJECT_NAME":"QB50P1","OBJECT_ID":"2014-033R","EPOCH":"2026-03-02T23:30:26.797248","MEAN_MOTION":15.16340222,"ECCENTRICITY":0.0007614,"INCLINATION":98.0997,"RA_OF_ASC_NODE":65.8094,"ARG_OF_PERICENTER":219.787,"MEAN_ANOMALY":140.2804,"EPHEMERIS_TYPE":0,"CLASSIFICATION_TYPE":"U","NORAD_CAT_ID":40025,"ELEMENT_SET_NO":999,"REV_AT_EPOCH":63692,"BSTAR":0.00057391,"MEAN_MOTION_DOT":0.00011071,"MEAN_MOTION_DDOT":0},{"OBJECT_NAME":"QB50P2","OBJECT_ID":"2014-033Y","EPOCH":"2026-03-03T04:25:53.499072","MEAN_MOTION":15.13514939,"ECCENTRICITY":0.0007803,"INCLINATION":98.0718,"RA_OF_ASC_NODE":52.6122,"ARG_OF_PERICENTER":162.6279,"MEAN_ANOMALY":197.5219,"EPHEMERIS_TYPE":0,"CLASSIFICATION_TYPE":"U","NORAD_CAT_ID":40032,"ELEMENT_SET_NO":999,"REV_AT_EPOCH":63662,"BSTAR":0.00062896,"MEAN_MOTION_DOT":0.00011208,"MEAN_MOTION_DDOT":0},{"OBJECT_NAME":"PERSEUS-M2","OBJECT_ID":"2014-033AD","EPOCH":"2026-03-03T03:14:49.373952","MEAN_MOTION":14.95121076,"ECCENTRICITY":0.0010365,"INCLINATION":97.9855,"RA_OF_ASC_NODE":10.618,"ARG_OF_PERICENTER":295.9133,"MEAN_ANOMALY":64.1018,"EPHEMERIS_TYPE":0,"CLASSIFICATION_TYPE":"U","NORAD_CAT_ID":40037,"ELEMENT_SET_NO":999,"REV_AT_EPOCH":63493,"BSTAR":0.0003551,"MEAN_MOTION_DOT":3.838e-5,"MEAN_MOTION_DDOT":0},{"OBJECT_NAME":"PERSEUS-M1","OBJECT_ID":"2014-033AF","EPOCH":"2026-03-02T18:44:59.072064","MEAN_MOTION":14.95207636,"ECCENTRICITY":0.00100702,"INCLINATION":97.9548,"RA_OF_ASC_NODE":4.2636,"ARG_OF_PERICENTER":294.5474,"MEAN_ANOMALY":65.4696,"EPHEMERIS_TYPE":0,"CLASSIFICATION_TYPE":"U","NORAD_CAT_ID":40039,"ELEMENT_SET_NO":999,"REV_AT_EPOCH":63473,"BSTAR":0.00032126189,"MEAN_MOTION_DOT":3.474e-5,"MEAN_MOTION_DDOT":0},{"OBJECT_NAME":"POLYITAN-1","OBJECT_ID":"2014-033AJ","EPOCH":"2026-03-03T00:01:01.068384","MEAN_MOTION":15.29195498,"ECCENTRICITY":0.0008787,"INCLINATION":98.1046,"RA_OF_ASC_NODE":78.4877,"ARG_OF_PERICENTER":146.9517,"MEAN_ANOMALY":213.2272,"EPHEMERIS_TYPE":0,"CLASSIFICATION_TYPE":"U","NORAD_CAT_ID":40042,"ELEMENT_SET_NO":999,"REV_AT_EPOCH":63734,"BSTAR":0.00085298,"MEAN_MOTION_DOT":0.0002416,"MEAN_MOTION_DDOT":0},{"OBJECT_NAME":"TIGRISAT","OBJECT_ID":"2014-033AK","EPOCH":"2026-03-02T15:33:35.641152","MEAN_MOTION":14.84681965,"ECCENTRICITY":0.0050753,"INCLINATION":97.7655,"RA_OF_ASC_NODE":214.2268,"ARG_OF_PERICENTER":65.0259,"MEAN_ANOMALY":295.6215,"EPHEMERIS_TYPE":0,"CLASSIFICATION_TYPE":"U","NORAD_CAT_ID":40043,"ELEMENT_SET_NO":999,"REV_AT_EPOCH":62981,"BSTAR":0.00036831,"MEAN_MOTION_DOT":3.135e-5,"MEAN_MOTION_DDOT":0},{"OBJECT_NAME":"AEROCUBE 6A","OBJECT_ID":"2014-033AM","EPOCH":"2026-03-02T23:28:47.351712","MEAN_MOTION":14.9672375,"ECCENTRICITY":0.0039414,"INCLINATION":97.7108,"RA_OF_ASC_NODE":230.2132,"ARG_OF_PERICENTER":12.1397,"MEAN_ANOMALY":348.0765,"EPHEMERIS_TYPE":0,"CLASSIFICATION_TYPE":"U","NORAD_CAT_ID":40045,"ELEMENT_SET_NO":999,"REV_AT_EPOCH":63072,"BSTAR":0.00065098,"MEAN_MOTION_DOT":7.5e-5,"MEAN_MOTION_DDOT":0}]
